HIMAWARI-8              
1 40267U 14060A   24151.93625052 -.00000273  00000+0  00000+0 0  9996
2 40267   0.0148 123.0824 0001074 350.8482 252.7008  1.00267170 35372
